{
  "type": "FeatureCollection",
  "features": [
    {
      "type": "Feature",
      "properties": {
        "norad_id": 22490,
        "name": "SCD 1",
        "group": "resource",
        "lat": 24.044214805313352,
        "lon": -89.33778280512034,
        "alt_km": 707.0329283603105,
        "timestamp": "2025-12-25T22:42:16.652752+00:00",
        "meta_object_name": "SCD 1",
        "meta_object_id": "1993-009B",
        "meta_epoch": "2025-12-25T16:00:22.325184",
        "meta_mean_motion": 14.46007346,
        "meta_eccentricity": 0.0042177,
        "meta_inclination": 24.9675,
        "meta_ra_of_asc_node": 198.8837,
        "meta_arg_of_pericenter": 101.5468,
        "meta_mean_anomaly": 317.8225,
        "meta_ephemeris_type": 0,
        "meta_classification_type": "U",
        "meta_norad_cat_id": 22490,
        "meta_element_set_no": 999,
        "meta_rev_at_epoch": 73597,
        "meta_bstar": 8.5981e-05,
        "meta_mean_motion_dot": 5e-06,
        "meta_mean_motion_ddot": 0,
        "tle_line1": "1 22490U 93009B   25359.66692506  .00000500  00000+0  85981-4 0  9991",
        "tle_line2": "2 22490  24.9675 198.8837 0042177 101.5468 317.8225 14.46007346735976"
      },
      "geometry": {
        "type": "Point",
        "coordinates": [
          -89.33778280512034,
          24.044214805313352
        ]
      }
    },
    {
      "type": "Feature",
      "properties": {
        "norad_id": 25397,
        "name": "TECHSAT 1B (GO-32)",
        "group": "resource",
        "lat": 9.921204014771003,
        "lon": 165.05091010581134,
        "alt_km": 812.9404376656212,
        "timestamp": "2025-12-25T22:42:16.652777+00:00",
        "meta_object_name": "TECHSAT 1B (GO-32)",
        "meta_object_id": "1998-043D",
        "meta_epoch": "2025-12-25T13:28:49.741248",
        "meta_mean_motion": 14.24380509,
        "meta_eccentricity": 0.0001644,
        "meta_inclination": 98.9933,
        "meta_ra_of_asc_node": 343.0704,
        "meta_arg_of_pericenter": 36.1283,
        "meta_mean_anomaly": 324.0006,
        "meta_ephemeris_type": 0,
        "meta_classification_type": "U",
        "meta_norad_cat_id": 25397,
        "meta_element_set_no": 999,
        "meta_rev_at_epoch": 42661,
        "meta_bstar": 5.8121e-05,
        "meta_mean_motion_dot": 8.8e-07,
        "meta_mean_motion_ddot": 0,
        "tle_line1": "1 25397U 98043D   25359.56168682  .00000088  00000+0  58121-4 0  9992",
        "tle_line2": "2 25397  98.9933 343.0704 0001644  36.1283 324.0006 14.24380509426618"
      },
      "geometry": {
        "type": "Point",
        "coordinates": [
          165.05091010581134,
          9.921204014771003
        ]
      }
    },
    {
      "type": "Feature",
      "properties": {
        "norad_id": 25504,
        "name": "SCD 2",
        "group": "resource",
        "lat": 24.544138282714062,
        "lon": 139.02779898196673,
        "alt_km": 723.1515626496657,
        "timestamp": "2025-12-25T22:42:16.652793+00:00",
        "meta_object_name": "SCD 2",
        "meta_object_id": "1998-060A",
        "meta_epoch": "2025-12-25T12:59:50.528256",
        "meta_mean_motion": 14.45430101,
        "meta_eccentricity": 0.0017068,
        "meta_inclination": 24.9956,
        "meta_ra_of_asc_node": 62.9589,
        "meta_arg_of_pericenter": 88.2247,
        "meta_mean_anomaly": 42.4879,
        "meta_ephemeris_type": 0,
        "meta_classification_type": "U",
        "meta_norad_cat_id": 25504,
        "meta_element_set_no": 999,
        "meta_rev_at_epoch": 43517,
        "meta_bstar": 7.5618e-05,
        "meta_mean_motion_dot": 4.53e-06,
        "meta_mean_motion_ddot": 0,
        "tle_line1": "1 25504U 98060A   25359.54155704  .00000453  00000+0  75618-4 0  9996",
        "tle_line2": "2 25504  24.9956  62.9589 0017068  88.2247  42.4879 14.45430101435172"
      },
      "geometry": {
        "type": "Point",
        "coordinates": [
          139.02779898196673,
          24.544138282714062
        ]
      }
    },
    {
      "type": "Feature",
      "properties": {
        "norad_id": 25757,
        "name": "DLR-TUBSAT",
        "group": "resource",
        "lat": -79.24975184451317,
        "lon": 38.2283216942975,
        "alt_km": 730.8928177219514,
        "timestamp": "2025-12-25T22:42:16.652805+00:00",
        "meta_object_name": "DLR-TUBSAT",
        "meta_object_id": "1999-029B",
        "meta_epoch": "2025-12-17T13:22:10.787520",
        "meta_mean_motion": 14.52359578,
        "meta_eccentricity": 0.00141996,
        "meta_inclination": 98.6566,
        "meta_ra_of_asc_node": 336.2196,
        "meta_arg_of_pericenter": 177.8976,
        "meta_mean_anomaly": 182.2281,
        "meta_ephemeris_type": 0,
        "meta_classification_type": "U",
        "meta_norad_cat_id": 25757,
        "meta_element_set_no": 999,
        "meta_rev_at_epoch": 40688,
        "meta_bstar": 3.7650132e-05,
        "meta_mean_motion_dot": 1.05e-06,
        "meta_mean_motion_ddot": 0,
        "tle_line1": "1 25757U 99029B   25351.55706930  .00000105  00000+0  37650-4 0  9996",
        "tle_line2": "2 25757  98.6566 336.2196 0014199 177.8976 182.2281 14.52359578406886"
      },
      "geometry": {
        "type": "Point",
        "coordinates": [
          38.2283216942975,
          -79.24975184451317
        ]
      }
    },
    {
      "type": "Feature",
      "properties": {
        "norad_id": 25994,
        "name": "TERRA",
        "group": "resource",
        "lat": 24.20574015562948,
        "lon": 47.53232299513964,
        "alt_km": 687.869357308984,
        "timestamp": "2025-12-25T22:42:16.652817+00:00",
        "meta_object_name": "TERRA",
        "meta_object_id": "1999-068A",
        "meta_epoch": "2025-12-25T18:09:48.095424",
        "meta_mean_motion": 14.60916058,
        "meta_eccentricity": 0.0003409,
        "meta_inclination": 97.9731,
        "meta_ra_of_asc_node": 50.9624,
        "meta_arg_of_pericenter": 68.5848,
        "meta_mean_anomaly": 41.4376,
        "meta_ephemeris_type": 0,
        "meta_classification_type": "U",
        "meta_norad_cat_id": 25994,
        "meta_element_set_no": 999,
        "meta_rev_at_epoch": 38428,
        "meta_bstar": 0.00010839,
        "meta_mean_motion_dot": 4.86e-06,
        "meta_mean_motion_ddot": 0,
        "tle_line1": "1 25994U 99068A   25359.75680666  .00000486  00000+0  10839-3 0  9990",
        "tle_line2": "2 25994  97.9731  50.9624 0003409  68.5848  41.4376 14.60916058384288"
      },
      "geometry": {
        "type": "Point",
        "coordinates": [
          47.53232299513964,
          24.20574015562948
        ]
      }
    },
    {
      "type": "Feature",
      "properties": {
        "norad_id": 27004,
        "name": "MAROC-TUBSAT",
        "group": "resource",
        "lat": 30.45384681015525,
        "lon": 162.79478012458645,
        "alt_km": 1010.7117801508339,
        "timestamp": "2025-12-25T22:42:16.652830+00:00",
        "meta_object_name": "MAROC-TUBSAT",
        "meta_object_id": "2001-056D",
        "meta_epoch": "2025-12-25T10:32:57.324768",
        "meta_mean_motion": 13.70253508,
        "meta_eccentricity": 0.0019286,
        "meta_inclination": 99.7917,
        "meta_ra_of_asc_node": 168.1071,
        "meta_arg_of_pericenter": 226.4654,
        "meta_mean_anomaly": 187.434,
        "meta_ephemeris_type": 0,
        "meta_classification_type": "U",
        "meta_norad_cat_id": 27004,
        "meta_element_set_no": 999,
        "meta_rev_at_epoch": 20239,
        "meta_bstar": 2.8305e-05,
        "meta_mean_motion_dot": -2.2e-07,
        "meta_mean_motion_ddot": 0,
        "tle_line1": "1 27004U 01056D   25359.43955237 -.00000022  00000+0  28305-4 0  9993",
        "tle_line2": "2 27004  99.7917 168.1071 0019286 226.4654 187.4340 13.70253508202393"
      },
      "geometry": {
        "type": "Point",
        "coordinates": [
          162.79478012458645,
          30.45384681015525
        ]
      }
    },
    {
      "type": "Feature",
      "properties": {
        "norad_id": 27424,
        "name": "AQUA",
        "group": "resource",
        "lat": -56.19499714261296,
        "lon": -26.200916308092857,
        "alt_km": 695.7141282399671,
        "timestamp": "2025-12-25T22:42:16.652841+00:00",
        "meta_object_name": "AQUA",
        "meta_object_id": "2002-022A",
        "meta_epoch": "2025-12-24T19:18:33.414624",
        "meta_mean_motion": 14.61757572,
        "meta_eccentricity": 0.00018094,
        "meta_inclination": 98.4055,
        "meta_ra_of_asc_node": 319.881,
        "meta_arg_of_pericenter": 102.1365,
        "meta_mean_anomaly": 317.5475,
        "meta_ephemeris_type": 0,
        "meta_classification_type": "U",
        "meta_norad_cat_id": 27424,
        "meta_element_set_no": 999,
        "meta_rev_at_epoch": 25779,
        "meta_bstar": 0.00019560508,
        "meta_mean_motion_dot": 9.26e-06,
        "meta_mean_motion_ddot": 0,
        "tle_line1": "1 27424U 02022A   25358.80455341  .00000926  00000+0  19561-3 0  9999",
        "tle_line2": "2 27424  98.4055 319.8810 0001809 102.1365 317.5475 14.61757572257795"
      },
      "geometry": {
        "type": "Point",
        "coordinates": [
          -26.200916308092857,
          -56.19499714261296
        ]
      }
    }
  ]
}